NORAD_CAT_ID,OBJECT_NAME,OBJECT_TYPE,EPOCH,MEAN_MOTION,ECCENTRICITY,INCLINATION,RA_OF_ASC_NODE,ARG_OF_PERICENTER,MEAN_ANOMALY,BSTAR,MEAN_MOTION_DOT,MEAN_MOTION_DDOT,TLE_LINE0,TLE_LINE1,TLE_LINE2,SEMIMAJOR_AXIS,PERIOD,APOGEE,PERIGEE,DECAYED
53438.0,STARLINK-4526,PAYLOAD,2023-09-09 11:07:06,15.08844321,0.0001444,53.2168,238.9076,96.9421,263.1736,1.5346e-05,-4.4e-07,0.0,0 STARLINK-4526,1 53438U 22097BC  23252.46327337 -.00000044  00000-0  15346-4 0  9994,2 53438  53.2168 238.9076 0001444  96.9421 263.1736 15.08844321 61088,6917.867,95.437,540.731,538.733,0.0
53438.0,STARLINK-4526,PAYLOAD,2023-09-10 07:47:08,15.08837736,0.0001425,53.2168,235.0412,97.4963,262.6191,5.3182e-05,5.59e-06,0.0,0 STARLINK-4526,1 53438U 22097BC  23253.32439934  .00000559  00000-0  53182-4 0  9997,2 53438  53.2168 235.0412 0001425  97.4963 262.6191 15.08837736 60727,6917.887,95.438,540.738,538.767,0.0
53438.0,STARLINK-4526,PAYLOAD,2023-09-10 15:44:04,15.08831405,0.0001258,53.2158,233.5551,95.6533,264.4603,-3.5648e-05,-8.55e-06,0.0,0 STARLINK-4526,1 53438U 22097BC  23253.65560740 -.00000855  00000-0 -35648-4 0  9991,2 53438  53.2158 233.5551 0001258  95.6533 264.4603 15.08831405 60770,6917.907,95.438,540.642,538.901,0.0
53438.0,STARLINK-4526,PAYLOAD,2023-09-11 06:02:33,15.08830135,0.0001319,53.2162,230.8789,94.08,266.0343,-1.1907e-05,-4.77e-06,0.0,0 STARLINK-4526,1 53438U 22097BC  23254.25177241 -.00000477  00000-0 -11907-4 0  9990,2 53438  53.2162 230.8789 0001319  94.0800 266.0343 15.08830135 61359,6917.911,95.438,540.688,538.863,0.0
53438.0,STARLINK-4526,PAYLOAD,2023-09-11 15:34:51,15.08840813,0.0001436,53.2175,229.0939,93.9974,266.1183,4.2763e-05,3.93e-06,0.0,0 STARLINK-4526,1 53438U 22097BC  23254.64920559  .00000393  00000-0  42763-4 0  9990,2 53438  53.2175 229.0939 0001436  93.9974 266.1183 15.08840813 60929,6917.878,95.438,540.736,538.749,0.0
53438.0,STARLINK-4526,PAYLOAD,2023-09-12 02:42:32,15.08849131,0.0001327,53.2173,227.0131,93.9537,266.1607,0.00017449,2.491e-05,0.0,0 STARLINK-4526,1 53438U 22097BC  23255.11287695  .00002491  00000-0  17449-3 0  9993,2 53438  53.2173 227.0131 0001327  93.9537 266.1607 15.08849131 60993,6917.852,95.437,540.635,538.799,0.0
53438.0,STARLINK-4526,PAYLOAD,2023-09-12 07:28:41,15.08859339,0.0001377,53.217,226.1209,96.2959,263.819,0.00014888,2.083e-05,0.0,0 STARLINK-4526,1 53438U 22097BC  23255.31159181  .00002083  00000-0  14888-3 0  9994,2 53438  53.2170 226.1209 0001377  96.2959 263.8190 15.08859339 61516,6917.821,95.436,540.639,538.734,0.0
53438.0,STARLINK-4526,PAYLOAD,2023-09-13 02:33:20,15.08842003,0.0001453,53.2174,222.5519,90.4236,269.6923,0.00019986,2.894e-05,0.0,0 STARLINK-4526,1 53438U 22097BC  23256.10648402  .00002894  00000-0  19986-3 0  9995,2 53438  53.2174 222.5519 0001453  90.4236 269.6923 15.08842003 61140,6917.874,95.437,540.744,538.734,0.0
53438.0,STARLINK-4526,PAYLOAD,2023-09-13 07:19:29,15.08853207,0.0001422,53.2156,221.657,102.8332,257.2819,0.00026175,3.882e-05,0.0,0 STARLINK-4526,1 53438U 22097BC  23256.30519791  .00003882  00000-0  26175-3 0  9991,2 53438  53.2156 221.6570 0001422 102.8332 257.2819 15.08853207 61176,6917.84,95.437,540.689,538.721,0.0
53438.0,STARLINK-4526,PAYLOAD,2023-09-13 15:16:25,15.08839802,0.0001848,53.216,220.1697,103.1596,256.9603,6.3933e-05,7.3e-06,0.0,0 STARLINK-4526,1 53438U 22097BC  23256.63640459  .00000730  00000-0  63933-4 0  9996,2 53438  53.2160 220.1697 0001848 103.1596 256.9603 15.08839802 61221,6917.881,95.438,541.024,538.468,0.0
53438.0,STARLINK-4526,PAYLOAD,2023-09-14 07:10:16,15.08841741,0.0001488,53.2163,217.1983,106.591,253.5246,-4.4551e-05,-9.97e-06,0.0,0 STARLINK-4526,1 53438U 22097BC  23257.29880334 -.00000997  00000-0 -44551-4 0  9999,2 53438  53.2163 217.1983 0001488 106.5910 253.5246 15.08841741 61811,6917.875,95.437,540.769,538.711,0.0
53438.0,STARLINK-4526,PAYLOAD,2023-09-15 03:50:17,15.08848135,0.0001459,53.2164,213.3341,100.0089,260.1068,0.00020747,3.016e-05,0.0,0 STARLINK-4526,1 53438U 22097BC  23258.15992190  .00003016  00000-0  20747-3 0  9992,2 53438  53.2164 213.3341 0001459 100.0089 260.1068 15.08848135 61452,6917.856,95.437,540.73,538.711,0.0
53438.0,STARLINK-4526,PAYLOAD,2023-09-15 07:01:03,15.08850761,0.0001446,53.2162,212.7382,100.1104,260.0051,0.00028722,4.287e-05,0.0,0 STARLINK-4526,1 53438U 22097BC  23258.29240076  .00004287  00000-0  28722-3 0  9998,2 53438  53.2162 212.7382 0001446 100.1104 260.0051 15.08850761 61968,6917.847,95.437,540.713,538.712,0.0
53438.0,STARLINK-4526,PAYLOAD,2023-09-16 02:05:41,15.0884663,0.000146,53.2165,209.1704,104.909,255.2064,0.0002465,3.638e-05,0.0,0 STARLINK-4526,1 53438U 22097BC  23259.08728314  .00003638  00000-0  24650-3 0  9997,2 53438  53.2165 209.1704 0001460 104.9090 255.2064 15.08846630 61590,6917.86,95.437,540.735,538.715,0.0
53438.0,STARLINK-4526,PAYLOAD,2023-09-16 05:16:27,15.08849149,0.0001309,53.2164,208.5761,93.8379,266.2763,0.00033385,5.031e-05,0.0,0 STARLINK-4526,1 53438U 22097BC  23259.21976266  .00005031  00000-0  33385-3 0  9997,2 53438  53.2164 208.5761 0001309  93.8379 266.2763 15.08849149 62107,6917.852,95.437,540.623,538.812,0.0
53438.0,STARLINK-4526,PAYLOAD,2023-09-17 01:56:28,15.0884638,0.0001373,53.2175,204.7134,100.6322,259.4825,0.00015996,2.259e-05,0.0,0 STARLINK-4526,1 53438U 22097BC  23260.08088339  .00002259  00000-0  15996-3 0  9996,2 53438  53.2175 204.7134 0001373 100.6322 259.4825 15.08846380 61743,6917.861,95.437,540.676,538.776,0.0
53438.0,STARLINK-4526,PAYLOAD,2023-09-17 05:07:14,15.0885059,0.0001403,53.2174,204.1183,99.7015,260.4136,0.00025513,3.776e-05,0.0,0 STARLINK-4526,1 53438U 22097BC  23260.21336195  .00003776  00000-0  25513-3 0  9998,2 53438  53.2174 204.1183 0001403  99.7015 260.4136 15.08850590 62253,6917.848,95.437,540.684,538.742,0.0
53438.0,STARLINK-4526,PAYLOAD,2023-09-18 01:47:15,15.08843179,0.0001383,53.2173,200.2528,103.6984,256.4162,0.00012751,1.742e-05,0.0,0 STARLINK-4526,1 53438U 22097BC  23261.07448410  .00001742  00000-0  12751-3 0  9998,2 53438  53.2173 200.2528 0001383 103.6984 256.4162 15.08843179 61897,6917.871,95.437,540.692,538.779,0.0
53438.0,STARLINK-4526,PAYLOAD,2023-09-18 06:33:24,15.0884716,0.0001287,53.2163,199.358,94.9508,265.1631,0.00015182,2.13e-05,0.0,0 STARLINK-4526,1 53438U 22097BC  23261.27320190  .00002130  00000-0  15182-3 0  9997,2 53438  53.2163 199.3580 0001287  94.9508 265.1631 15.08847160 62410,6917.859,95.437,540.614,538.833,0.0
53438.0,STARLINK-4526,PAYLOAD,2023-09-19 04:48:48,15.08854289,0.0001453,53.217,195.1935,89.2126,270.9032,0.00021563,3.147e-05,0.0,0 STARLINK-4526,1 53438U 22097BC  23262.20055698  .00003147  00000-0  21563-3 0  9998,2 53438  53.2170 195.1935 0001453  89.2126 270.9032 15.08854289 62064,6917.837,95.437,540.707,538.697,0.0
53438.0,STARLINK-4526,PAYLOAD,2023-09-20 04:39:35,15.08851925,0.0001498,53.2173,190.7327,73.781,286.3347,0.00020219,2.932e-05,0.0,0 STARLINK-4526,1 53438U 22097BC  23263.19415600  .00002932  00000-0  20219-3 0  9998,2 53438  53.2173 190.7327 0001498  73.7810 286.3347 15.08851925 62211,6917.844,95.437,540.745,538.673,0.0
53438.0,STARLINK-4526,PAYLOAD,2023-09-20 18:58:04,15.08827476,0.0001355,53.2173,188.0579,107.9459,252.168,-9.5237e-05,-1.803e-05,0.0,0 STARLINK-4526,1 53438U 22097BC  23263.79033090 -.00001803  00000-0 -95237-4 0  9994,2 53438  53.2173 188.0579 0001355 107.9459 252.1680 15.08827476 62306,6917.919,95.438,540.721,538.846,0.0
53438.0,STARLINK-4526,PAYLOAD,2023-09-21 04:30:23,15.08831276,0.0001409,53.2168,186.2726,93.3895,266.7258,-0.00015271,-2.717e-05,0.0,0 STARLINK-4526,1 53438U 22097BC  23264.18777184 -.00002717  00000-0 -15271-3 0  9991,2 53438  53.2168 186.2726 0001409  93.3895 266.7258 15.08831276 62851,6917.907,95.438,540.747,538.797,0.0
53438.0,STARLINK-4526,PAYLOAD,2023-09-21 21:59:38,15.08839713,0.0001298,53.2167,183.0021,104.7667,255.3469,6.7894e-05,7.93e-06,0.0,0 STARLINK-4526,1 53438U 22097BC  23264.91641324  .00000793  00000-0  67894-4 0  9997,2 53438  53.2167 183.0021 0001298 104.7667 255.3469 15.08839713 62967,6917.881,95.438,540.644,538.848,0.0
53438.0,STARLINK-4526,PAYLOAD,2023-09-22 01:10:24,15.08846542,0.0001345,53.2164,182.4079,95.9789,264.1357,0.00017526,2.503e-05,0.0,0 STARLINK-4526,1 53438U 22097BC  23265.04889072  .00002503  00000-0  17526-3 0  9993,2 53438  53.2164 182.4079 0001345  95.9789 264.1357 15.08846542 62499,6917.86,95.437,540.656,538.795,0.0
53438.0,STARLINK-4526,PAYLOAD,2023-09-22 04:21:10,15.08848871,0.0001406,53.2161,181.8127,96.9483,263.1669,0.00043656,6.668e-05,0.0,0 STARLINK-4526,1 53438U 22097BC  23265.18137231  .00006668  00000-0  43656-3 0  9990,2 53438  53.2161 181.8127 0001406  96.9483 263.1669 15.08848871 63003,6917.853,95.437,540.691,538.746,0.0
53438.0,STARLINK-4526,PAYLOAD,2023-09-22 21:50:25,15.08847203,0.0001631,53.2158,178.5408,110.4419,249.6748,0.00037625,5.706e-05,0.0,0 STARLINK-4526,1 53438U 22097BC  23265.91001435  .00005706  00000-0  37625-3 0  9998,2 53438  53.2158 178.5408 0001631 110.4419 249.6748 15.08847203 63112,6917.858,95.437,540.852,538.595,0.0
53438.0,STARLINK-4526,PAYLOAD,2023-09-23 01:01:11,15.08853731,0.0001358,53.2163,177.9478,90.3933,269.7215,0.00052735,8.118e-05,0.0,0 STARLINK-4526,1 53438U 22097BC  23266.04249364  .00008118  00000-0  52735-3 0  9997,2 53438  53.2163 177.9478 0001358  90.3933 269.7215 15.08853731 62643,6917.838,95.437,540.643,538.764,0.0
53438.0,STARLINK-4526,PAYLOAD,2023-09-23 18:30:25,15.08846665,0.0001382,53.2158,174.6767,84.8081,275.3069,0.00012665,1.729e-05,0.0,0 STARLINK-4526,1 53438U 22097BC  23266.77113246  .00001729  00000-0  12665-3 0  9995,2 53438  53.2158 174.6767 0001382  84.8081 275.3069 15.08846665 62751,6917.86,95.437,540.681,538.769,0.0
53438.0,STARLINK-4526,PAYLOAD,2023-09-24 04:02:44,15.08854587,0.0001212,53.2161,172.8925,99.401,260.712,0.00059144,9.141e-05,0.0,0 STARLINK-4526,1 53438U 22097BC  23267.16856958  .00009141  00000-0  59144-3 0  9992,2 53438  53.2161 172.8925 0001212  99.4010 260.7120 15.08854587 63307,6917.836,95.437,540.539,538.862,0.0
